[{"OBJECT_NAME":"NEXSAT-1","OBJECT_ID":"2024-024E","EPOCH":"2026-03-09T22:47:24.778176","MEAN_MOTION":15.32166372,"ECCENTRICITY":0.00099795,"INCLINATION":97.3124,"RA_OF_ASC_NODE":144.1918,"ARG_OF_PERICENTER":108.5709,"MEAN_ANOMALY":251.6617,"EPHEMERIS_TYPE":0,"CLASSIFICATION_TYPE":"U","NORAD_CAT_ID":58921,"ELEMENT_SET_NO":999,"REV_AT_EPOCH":11669,"BSTAR":0.00031433612,"MEAN_MOTION_DOT":9.702e-5,"MEAN_MOTION_DDOT":0},{"OBJECT_NAME":"STARLINK-35621","OBJECT_ID":"2025-240L","EPOCH":"2026-03-09T10:04:01.217856","MEAN_MOTION":15.30193577,"ECCENTRICITY":0.0001578,"INCLINATION":53.1595,"RA_OF_ASC_NODE":64.3121,"ARG_OF_PERICENTER":94.7303,"MEAN_ANOMALY":265.3878,"EPHEMERIS_TYPE":0,"CLASSIFICATION_TYPE":"U","NORAD_CAT_ID":66156,"ELEMENT_SET_NO":999,"REV_AT_EPOCH":2194,"BSTAR":0.0008928967,"MEAN_MOTION_DOT":0.00026174,"MEAN_MOTION_DDOT":0}]
